SEARCHVAL,BLK_NO,ROAD_NAME,BUILDING,ADDRESS,POSTAL,X,Y,LATITUDE,LONGITUDE
CITYLINK MALL,1,RAFFLES LINK,CITYLINK MALL,1 RAFFLES LINK CITYLINK MALL SINGAPORE 039393,039393,30320.972393252,30574.3218035102,1.2927777312893,103.854173501417
ELIAS MALL,625,ELIAS ROAD,ELIAS MALL,625 ELIAS ROAD ELIAS MALL SINGAPORE 510625,510625,40092.4603688922,40064.6402175538,1.37860239771677,103.941978174681
HILLION MALL,17,PETIR ROAD,HILLION MALL,17 PETIR ROAD HILLION MALL SINGAPORE 678278,678278,20156.924196275,40045.5291337073,1.37843100827586,103.762842789877
MACPHERSON MALL,401,MACPHERSON ROAD,MACPHERSON MALL,401 MACPHERSON ROAD MACPHERSON MALL SINGAPORE 368125,368125,33116.6434122045,34885.9847940803,1.3317705447992,103.879294500005
MARINA MALL,,MARINA MALL,NIL,MARINA MALL,NIL,31744.9358719862,29137.3835651878,1.27978241295298,103.866968273125
PIONEER MALL,638,JURONG WEST STREET 61,PIONEER MALL,638 JURONG WEST STREET 61 PIONEER MALL SINGAPORE 640638,640638,12848.6614737436,35983.4657739643,1.34169239214292,103.697174842118
PLQ MALL,10,PAYA LEBAR ROAD,PLQ MALL,10 PAYA LEBAR ROAD PLQ MALL SINGAPORE 409057,409057,34623.78747709,33314.8152264543,1.31756115921,103.892836694432
TANGLIN MALL,163,TANGLIN ROAD,TANGLIN MALL,163 TANGLIN ROAD TANGLIN MALL SINGAPORE 247933,247933,26946.5451086154,31908.4783786591,1.30484344196915,103.823852794772
WISTERIA MALL,598,YISHUN RING ROAD,WISTERIA MALL,598 YISHUN RING ROAD WISTERIA MALL SINGAPORE 768698,768698,28884.7489383351,44415.5435907897,1.41795288501536,103.841268831617
ZHONGSHAN MALL,20,AH HOOD ROAD,ZHONGSHAN MALL,20 AH HOOD ROAD ZHONGSHAN MALL SINGAPORE 329984,329984,29473.0098957308,34352.36196642,1.32694504456951,103.846554377679
BEDOK MALL,311,NEW UPPER CHANGI ROAD,BEDOK MALL,311 NEW UPPER CHANGI ROAD BEDOK MALL SINGAPORE 467360,467360,38676.9034392368,34108.3360637221,1.32473632784728,103.929256259998
EASTLINK MALL,8,TAMPINES CENTRAL 1,EASTLINK MALL,8 TAMPINES CENTRAL 1 EASTLINK MALL SINGAPORE 529543,529543,40351.5695948433,37383.7361611221,1.35435719591377,103.944305344915
EASTPOINT MALL,3,SIMEI STREET 6,EASTPOINT MALL,3 SIMEI STREET 6 EASTPOINT MALL SINGAPORE 528833,528833,41321.990633836,36095.4413322229,1.34270592355576,103.953024618234
ESPLANADE MALL,8,RAFFLES AVENUE,ESPLANADE MALL,8 RAFFLES AVENUE ESPLANADE MALL SINGAPORE 039802,039802,30553.9917371552,30228.2371328641,1.28964784521264,103.856267250977
HOUGANG MALL,90,HOUGANG AVENUE 10,HOUGANG MALL,90 HOUGANG AVENUE 10 HOUGANG MALL SINGAPORE 538766,538766,34728.1240016175,39389.1175711397,1.37249493810003,103.893775562605
RIVERVALE MALL,11,RIVERVALE CRESCENT,RIVERVALE MALL,11 RIVERVALE CRESCENT RIVERVALE MALL SINGAPORE 545082,545082,35918.3976602554,41567.7920261901,1.39219777838449,103.904471600025
ROCHESTER MALL,35,ROCHESTER DRIVE,ROCHESTER MALL,35 ROCHESTER DRIVE ROCHESTER MALL SINGAPORE 138639,138639,23006.1702728383,31970.9088191949,1.30540765569962,103.788446680148
TAMPINES MALL,4,TAMPINES CENTRAL 5,TAMPINES MALL,4 TAMPINES CENTRAL 5 TAMPINES MALL SINGAPORE 529510,529510,40395.3605872542,37181.4052837677,1.35252737278519,103.944698751072
WEST MALL,1,BUKIT BATOK CENTRAL LINK,WEST MALL,1 BUKIT BATOK CENTRAL LINK WEST MALL SINGAPORE 658713,658713,18643.5269172937,36903.9429145474,1.35001920979845,103.749244800677
DAIRY FARM MALL,4,DAIRY FARM LANE,DAIRY FARM MALL,4 DAIRY FARM LANE DAIRY FARM MALL SINGAPORE 677622,677622,21515.2982457317,38623.4734863397,1.3655707838852,103.77504908361
GRANTRAL MALL @ CLEMENTI,3151,COMMONWEALTH AVENUE WEST,GRANTRAL MALL @ CLEMENTI,3151 COMMONWEALTH AVENUE WEST GRANTRAL MALL @ CLEMENTI SINGAPORE 129581,129581,20413.2100247061,32950.9688186739,1.31427043922294,103.765147487482
GRANTRAL MALL @ MACPHERSON,601,MACPHERSON ROAD,GRANTRAL MALL @ MACPHERSON,601 MACPHERSON ROAD GRANTRAL MALL @ MACPHERSON SINGAPORE 368242,368242,34033.2568143988,35101.7975156717,1.33372210930312,103.887530827719
KANG KAR MALL,100,HOUGANG AVENUE 10,KANG KAR MALL,100 HOUGANG AVENUE 10 KANG KAR MALL SINGAPORE 538767,538767,34779.2318856083,39305.0979463942,1.37173508334316,103.894234783936
KEBUN BARU MALL,226C,ANG MO KIO AVENUE 1,KEBUN BARU MALL,226C ANG MO KIO AVENUE 1 KEBUN BARU MALL SINGAPORE 563226,563226,28660.8703136388,38797.6185448468,1.3671463933326,103.839256956986
DJIT SUN MALL,5,ANG MO KIO CENTRAL 2,DJIT SUN MALL,5 ANG MO KIO CENTRAL 2 DJIT SUN MALL SINGAPORE 569663,569663,29594.3526987862,39429.645069547,1.37286217975215,103.847644977493
DJITSUN MALL BEDOK,445,BEDOK NORTH STREET 1,DJITSUN MALL BEDOK,445 BEDOK NORTH STREET 1 DJITSUN MALL BEDOK SINGAPORE 469661,469661,38710.0881669372,34261.3041274194,1.32611970329469,103.929554495615
SENGKANG GRAND MALL,11,SENGKANG CENTRAL,SENGKANG GRAND MALL,11 SENGKANG CENTRAL SENGKANG GRAND MALL SINGAPORE 544575,544575,34610.7360133147,40548.6806070674,1.38298163230717,103.892721008018
THE CLEMENTI MALL,3155,COMMONWEALTH AVENUE WEST,THE CLEMENTI MALL,3155 COMMONWEALTH AVENUE WEST THE CLEMENTI MALL SINGAPORE 129588,129588,20332.589403728,33020.1640930343,1.31489619639366,103.764423054189
THE FURNITURE MALL,10,TOH GUAN ROAD,THE FURNITURE MALL,10 TOH GUAN ROAD THE FURNITURE MALL SINGAPORE 608838,608838,18529.8018695768,34949.0354558695,1.3323397045547,103.748223521297
THE WOODLEIGH MALL,501,UPPER ALJUNIED ROAD,THE WOODLEIGH MALL,501 UPPER ALJUNIED ROAD THE WOODLEIGH MALL SINGAPORE 367897,367897,32268.1044003973,35655.5848135483,1.33873066415565,103.871670008464
UE SHOPPING MALL,83,CLEMENCEAU AVENUE,UE SHOPPING MALL,83 CLEMENCEAU AVENUE UE SHOPPING MALL SINGAPORE 239920,239920,29077.8254402056,30560.3399927206,1.29265135224218,103.843003298048
BENDEMEER SHOPPING MALL,25,BENDEMEER ROAD,BENDEMEER SHOPPING MALL,25 BENDEMEER ROAD BENDEMEER SHOPPING MALL SINGAPORE 330025,330025,31270.1865932047,33438.7611063775,1.31868262266763,103.862702893919
KALLANG WAVE MALL,1,STADIUM PLACE,KALLANG WAVE MALL,1 STADIUM PLACE KALLANG WAVE MALL SINGAPORE 397628,397628,32432.8422906362,31712.9829503335,1.30307515150401,103.873149707591
THE FLOW MALL,66,EAST COAST ROAD,THE FLOW MALL,66 EAST COAST ROAD THE FLOW MALL SINGAPORE 428778,428778,35888.8009598814,31878.7438076194,1.30457354662016,103.904203116447
UBI CAR MALL,18,UBI ROAD 4,UBI CAR MALL,18 UBI ROAD 4 UBI CAR MALL SINGAPORE 408616,408616,35374.4833851838,34935.7887333315,1.33222048896465,103.899582467306
CATHAY CINEPLEX WEST MALL,1,BUKIT BATOK CENTRAL LINK,CATHAY CINEPLEX WEST MALL,1 BUKIT BATOK CENTRAL LINK CATHAY CINEPLEX WEST MALL SINGAPORE 658713,658713,18640.083813074,36912.5610872842,1.35009714832628,103.74921385957
CITY SQUARE MALL,180,KITCHENER ROAD,CITY SQUARE MALL,180 KITCHENER ROAD CITY SQUARE MALL SINGAPORE 208539,208539,30593.6748798871,32635.8044067919,1.31142103107683,103.856624019991
CT HUB MALL,2,KALLANG AVENUE,CT HUB MALL,2 KALLANG AVENUE CT HUB MALL SINGAPORE 339407,339407,31290.6884909039,32703.7422280367,1.31203537015087,103.862887035837
FORUM THE SHOPPING MALL,583,ORCHARD ROAD,FORUM THE SHOPPING MALL,583 ORCHARD ROAD FORUM THE SHOPPING MALL SINGAPORE 238884,238884,27483.6082861088,32047.1465453263,1.30609752164563,103.828678556041
"LOT ONE, SHOPPERS' MALL",21,CHOA CHU KANG AVENUE 4,"LOT ONE, SHOPPERS' MALL","21 CHOA CHU KANG AVENUE 4 LOT ONE, SHOPPERS' MALL SINGAPORE 689812",689812,18172.5792770851,40769.1529334113,1.38497459672379,103.745011766388
THE RAIL MALL,390,UPPER BUKIT TIMAH ROAD,THE RAIL MALL,390 UPPER BUKIT TIMAH ROAD THE RAIL MALL SINGAPORE 678045,678045,20729.8811162803,37779.0305802338,1.35793376567949,103.767991780291
COMMONWEALTH CAR MALL,15,COMMONWEALTH LANE,COMMONWEALTH CAR MALL,15 COMMONWEALTH LANE COMMONWEALTH CAR MALL SINGAPORE 149554,149554,23965.1859420827,32035.7345166206,1.30599405627959,103.797063875409
ALBERT MALL TRISHAW PARK,,QUEEN STREET,ALBERT MALL TRISHAW PARK,QUEEN STREET ALBERT MALL TRISHAW PARK SINGAPORE 188067,188067,30248.024100787,31335.3452989887,1.29966016502847,103.853518084567
AMAR KIDZ @ ELIAS MALL PTE. LTD.,623,ELIAS ROAD,AMAR KIDZ @ ELIAS MALL PTE. LTD.,623 ELIAS ROAD AMAR KIDZ @ ELIAS MALL PTE. LTD. SINGAPORE 510623,510623,40132.2654915983,39987.5637958609,1.37790533095468,103.94233582068
BISHAN NORTH SHOPPING MALL,282,BISHAN STREET 22,BISHAN NORTH SHOPPING MALL,282 BISHAN STREET 22 BISHAN NORTH SHOPPING MALL SINGAPORE 570282,570282,29272.8527438939,37802.2177626435,1.35814432379457,103.844756001146
CONCORDE HOTEL AND SHOPPING MALL,100,ORCHARD ROAD,CONCORDE HOTEL AND SHOPPING MALL,100 ORCHARD ROAD CONCORDE HOTEL AND SHOPPING MALL SINGAPORE 238840,238840,28991.5434350166,31440.8495623283,1.30061437384276,103.842228045431
HOUGANG GREEN SHOPPING MALL,21,HOUGANG STREET 51,HOUGANG GREEN SHOPPING MALL,21 HOUGANG STREET 51 HOUGANG GREEN SHOPPING MALL SINGAPORE 538719,538719,34066.6627102559,40135.5216910187,1.3792452907016,103.887832017102
MARINA BAY LINK MALL,8A,MARINA BOULEVARD,MARINA BAY LINK MALL,8A MARINA BOULEVARD MARINA BAY LINK MALL SINGAPORE 018984,018984,30231.5229646396,29187.7704102397,1.28023825446086,103.853369662547
MARSILING MALL HAWKER CENTRE,4,WOODLANDS STREET 12,MARSILING MALL HAWKER CENTRE,4 WOODLANDS STREET 12 MARSILING MALL HAWKER CENTRE SINGAPORE 738623,738623,22053.3037563628,46139.5079379082,1.43354318137534,103.77988189197
51 OLD AIRPORT ROAD FOOD CENTRE AND SHOPPING MALL,51,OLD AIRPORT ROAD,51 OLD AIRPORT ROAD FOOD CENTRE AND SHOPPING MALL,51 OLD AIRPORT ROAD 51 OLD AIRPORT ROAD FOOD CENTRE AND SHOPPING MALL SINGAPORE 390051,390051,33841.6620816709,32285.4213495106,1.3082518471287,103.88580870609
GROUND PLAZA (MARINA BAY LINK MALL),8A,MARINA BOULEVARD,GROUND PLAZA (MARINA BAY LINK MALL),8A MARINA BOULEVARD GROUND PLAZA (MARINA BAY LINK MALL) SINGAPORE 018984,018984,30387.719774697,29152.7203272395,1.27992126239604,103.854773147641
LEAP SCHOOLHOUSE @ CITY SQUARE MALL PTE LTD,180,KITCHENER ROAD,LEAP SCHOOLHOUSE @ CITY SQUARE MALL PTE LTD,180 KITCHENER ROAD LEAP SCHOOLHOUSE @ CITY SQUARE MALL PTE LTD SINGAPORE 208539,208539,30578.4383098325,32632.7593870945,1.31139349427341,103.856487111691
THE VETERINARY CLINIC PTE LTD (NEX MALL BRANCH),23,SERANGOON CENTRAL,THE VETERINARY CLINIC PTE LTD (NEX MALL BRANCH),23 SERANGOON CENTRAL THE VETERINARY CLINIC PTE LTD (NEX MALL BRANCH) SINGAPORE 556083,556083,32317.6806941433,36999.9727844279,1.35088882151724,103.87211567247
ICB SHOPPING CENTRE,6A,YIO CHU KANG ROAD,ICB SHOPPING CENTRE,6A YIO CHU KANG ROAD ICB SHOPPING CENTRE SINGAPORE 545521,545521,32949.1597920908,37408.5902013965,1.35458411311499,103.877789977988
ANCHORPOINT SHOPPING CENTRE,368,ALEXANDRA ROAD,ANCHORPOINT SHOPPING CENTRE,368 ALEXANDRA ROAD ANCHORPOINT SHOPPING CENTRE SINGAPORE 159952,159952,24916.023050786,30149.3953310214,1.28893477974497,103.805607779399
KATONG SHOPPING CENTRE,865,MOUNTBATTEN ROAD,KATONG SHOPPING CENTRE,865 MOUNTBATTEN ROAD KATONG SHOPPING CENTRE SINGAPORE 437844,437844,35589.7415065095,31826.0758814793,1.3040973115095,103.901515916971
GOLDHILL SHOPPING CENTRE,193B,THOMSON ROAD,GOLDHILL SHOPPING CENTRE,193B THOMSON ROAD GOLDHILL SHOPPING CENTRE SINGAPORE 307633,307633,29111.2131147366,33380.7437984031,1.31815808889825,103.843303400927
GREENRIDGE SHOPPING CENTRE,524A,JELAPANG ROAD,GREENRIDGE SHOPPING CENTRE,524A JELAPANG ROAD GREENRIDGE SHOPPING CENTRE SINGAPORE 671524,671524,20533.7299018195,40816.7439803742,1.38540569283271,103.766228468185
SIGLAP SHOPPING CENTRE,895A,EAST COAST ROAD,SIGLAP SHOPPING CENTRE,895A EAST COAST ROAD SIGLAP SHOPPING CENTRE SINGAPORE 459098,459098,38104.3690905524,32799.1559931096,1.31289677586148,103.924111308524
CONCORDE SHOPPING CENTRE,317,OUTRAM ROAD,CONCORDE SHOPPING CENTRE,317 OUTRAM ROAD CONCORDE SHOPPING CENTRE SINGAPORE 169075,169075,28098.8517283937,30143.9909522608,1.28888605616528,103.834206802698
EXCELSIOR SHOPPING CENTRE,5,COLEMAN STREET,EXCELSIOR SHOPPING CENTRE,5 COLEMAN STREET EXCELSIOR SHOPPING CENTRE SINGAPORE 179805,179805,29836.5104312617,30490.0821910594,1.29201593006902,103.849820400271
LIMBANG SHOPPING CENTRE,533A,CHOA CHU KANG STREET 51,LIMBANG SHOPPING CENTRE,533A CHOA CHU KANG STREET 51 LIMBANG SHOPPING CENTRE SINGAPORE 681533,681533,17991.8168503707,41507.1441277526,1.39164865474084,103.743387228295
ORCHARD SHOPPING CENTRE,321,ORCHARD ROAD,ORCHARD SHOPPING CENTRE,321 ORCHARD ROAD ORCHARD SHOPPING CENTRE SINGAPORE 238866,238866,28508.5638475288,31538.767972786,1.30149992510852,103.837888257002
QUEENSWAY SHOPPING CENTRE,1,QUEENSWAY,QUEENSWAY SHOPPING CENTRE,1 QUEENSWAY QUEENSWAY SHOPPING CENTRE SINGAPORE 149053,149053,24670.0123250559,30001.2731109783,1.28759518939869,103.803397287789
SEMBAWANG SHOPPING CENTRE,604,SEMBAWANG ROAD,SEMBAWANG SHOPPING CENTRE,604 SEMBAWANG ROAD SEMBAWANG SHOPPING CENTRE SINGAPORE 758459,758459,27057.045284275,47055.1697449628,1.44182470675733,103.824845207237
TANGLIN SHOPPING CENTRE,19,TANGLIN ROAD,TANGLIN SHOPPING CENTRE,19 TANGLIN ROAD TANGLIN SHOPPING CENTRE SINGAPORE 247909,247909,27302.4342148164,32080.8744622618,1.30640254147338,103.827050620793
FAJAR SHOPPING CENTRE,446,FAJAR ROAD,FAJAR SHOPPING CENTRE,446 FAJAR ROAD FAJAR SHOPPING CENTRE SINGAPORE 670446,670446,21068.0308836559,40661.938983012,1.38400582466296,103.771029603101
TAKASHIMAYA SHOPPING CENTRE,391,ORCHARD ROAD,TAKASHIMAYA SHOPPING CENTRE,391 ORCHARD ROAD TAKASHIMAYA SHOPPING CENTRE SINGAPORE 238872,238872,28159.2823632453,31628.210651638,1.30230881694097,103.834749804244
BALESTIER HILL SHOPPING CENTRE,1,THOMSON ROAD,BALESTIER HILL SHOPPING CENTRE,1 THOMSON ROAD BALESTIER HILL SHOPPING CENTRE SINGAPORE 300001,300001,29029.7692046016,34203.1838174984,1.32559594839311,103.842571612968
FAR EAST SHOPPING CENTRE,545,ORCHARD ROAD,FAR EAST SHOPPING CENTRE,545 ORCHARD ROAD FAR EAST SHOPPING CENTRE SINGAPORE 238882,238882,27628.9835352879,31981.7507806942,1.30550610748913,103.829984822014
GEK POH SHOPPING CENTRE,762,JURONG WEST STREET 75,GEK POH SHOPPING CENTRE,762 JURONG WEST STREET 75 GEK POH SHOPPING CENTRE SINGAPORE 640762,640762,12910.7207379946,36763.1478772014,1.34874357136408,103.697732091001
RAFFLES CITY SHOPPING CENTRE,252,NORTH BRIDGE ROAD,RAFFLES CITY SHOPPING CENTRE,252 NORTH BRIDGE ROAD RAFFLES CITY SHOPPING CENTRE SINGAPORE 179103,179103,30203.7152231745,30697.7055161726,1.29389357863312,103.853119904656
TAMAN JURONG SHOPPING CENTRE,399,YUNG SHENG ROAD,TAMAN JURONG SHOPPING CENTRE,399 YUNG SHENG ROAD TAMAN JURONG SHOPPING CENTRE SINGAPORE 610399,610399,15440.244104865,35226.1689331774,1.33484487416514,103.720462024278
BOON LAY SHOPPING CENTRE,221,BOON LAY PLACE,BOON LAY SHOPPING CENTRE,221 BOON LAY PLACE BOON LAY SHOPPING CENTRE SINGAPORE 640221,640221,14546.4666856667,36496.7915879078,1.34633552457315,103.712430373455
BUKIT TIMAH SHOPPING CENTRE,170,UPPER BUKIT TIMAH ROAD,BUKIT TIMAH SHOPPING CENTRE,170 UPPER BUKIT TIMAH ROAD BUKIT TIMAH SHOPPING CENTRE SINGAPORE 588179,588179,21624.5547704771,36145.9251206573,1.34316475341698,103.776031354379
COLD STORAGE JELITA SHOPPING CENTRE,293,HOLLAND ROAD,COLD STORAGE JELITA SHOPPING CENTRE,293 HOLLAND ROAD COLD STORAGE JELITA SHOPPING CENTRE SINGAPORE 278628,278628,22716.1649419712,33318.3548552729,1.31759342988446,103.785840617304
DEPOT HEIGHTS SHOPPING CENTRE,108,DEPOT ROAD,DEPOT HEIGHTS SHOPPING CENTRE,108 DEPOT ROAD DEPOT HEIGHTS SHOPPING CENTRE SINGAPORE 100108,100108,25437.3978480315,29254.8302480821,1.28084469467756,103.810292618353
FURAMA CITY CENTRE SINGAPORE / SHOPPING CENTRE,60,EU TONG SEN STREET,FURAMA CITY CENTRE SINGAPORE / SHOPPING CENTRE,60 EU TONG SEN STREET FURAMA CITY CENTRE SINGAPORE / SHOPPING CENTRE SINGAPORE 059804,059804,29258.7239820426,29879.826216327,1.28649701803051,103.844628721032
KEAT HONG SHOPPING CENTRE,253,CHOA CHU KANG AVENUE 1,KEAT HONG SHOPPING CENTRE,253 CHOA CHU KANG AVENUE 1 KEAT HONG SHOPPING CENTRE SINGAPORE 680253,680253,18103.7591441153,39927.8427333515,1.37736607441394,103.744393648768
SINGAPORE SHOPPING CENTRE,190,CLEMENCEAU AVENUE,SINGAPORE SHOPPING CENTRE,190 CLEMENCEAU AVENUE SINGAPORE SHOPPING CENTRE SINGAPORE 239924,239924,29201.1359043466,31168.6460736729,1.29815265394505,103.844111318107
TECK WHYE SHOPPING CENTRE,137,TECK WHYE LANE,TECK WHYE SHOPPING CENTRE,137 TECK WHYE LANE TECK WHYE SHOPPING CENTRE SINGAPORE 680137,680137,19004.1078333827,40224.3126699142,1.38004752975397,103.752483841199
UPPER SERANGOON SHOPPING CENTRE,756,UPPER SERANGOON ROAD,UPPER SERANGOON SHOPPING CENTRE,756 UPPER SERANGOON ROAD UPPER SERANGOON SHOPPING CENTRE SINGAPORE 534626,534626,33064.697135333,37286.5960918665,1.35348082277147,103.878828134896
CLEMENTI AVENUE 2 SHOPPING CENTRE,352,CLEMENTI AVENUE 2,CLEMENTI AVENUE 2 SHOPPING CENTRE,352 CLEMENTI AVENUE 2 CLEMENTI AVENUE 2 SHOPPING CENTRE SINGAPORE 120352,120352,21103.5526931826,32951.8534610327,1.31427860227337,103.771350557894
FAJAR SHOPPING CENTRE/MULTI STOREY CAR PARK,446A,FAJAR ROAD,FAJAR SHOPPING CENTRE/MULTI STOREY CAR PARK,446A FAJAR ROAD FAJAR SHOPPING CENTRE/MULTI STOREY CAR PARK SINGAPORE 671446,671446,21103.7618449507,40636.744942477,1.38377798738412,103.771350678551
HOLLAND ROAD SHOPPING CENTRE,213,HOLLAND AVENUE,HOLLAND ROAD SHOPPING CENTRE,213 HOLLAND AVENUE HOLLAND ROAD SHOPPING CENTRE SINGAPORE 278968,278968,23776.8097856715,32509.3758863099,1.31027747574117,103.795371162831
VALLEY POINT SHOPPING CENTRE,491,RIVER VALLEY ROAD,VALLEY POINT SHOPPING CENTRE,491 RIVER VALLEY ROAD VALLEY POINT SHOPPING CENTRE SINGAPORE 248371,248371,27290.2090064604,30600.8644037917,1.29301785120185,103.826940805171
CORONATION SHOPPING PLAZA,587,BUKIT TIMAH ROAD,CORONATION SHOPPING PLAZA,587 BUKIT TIMAH ROAD CORONATION SHOPPING PLAZA SINGAPORE 269707,269707,25404.8279538844,34008.4909447618,1.32383512178759,103.809999570047
PARKLANE SHOPPING MALL,35,SELEGIE ROAD,PARKLANE SHOPPING MALL,35 SELEGIE ROAD PARKLANE SHOPPING MALL SINGAPORE 188307,188307,29795.1275293678,31444.2734161112,1.30064530196806,103.849448612005
PENINSULA SHOPPING COMPLEX,3,COLEMAN STREET,PENINSULA SHOPPING COMPLEX,3 COLEMAN STREET PENINSULA SHOPPING COMPLEX SINGAPORE 179804,179804,29886.84073075,30467.0791893303,1.29180789601988,103.850272637854
RAFFLES HOTEL SHOPPING ARCADE,328,NORTH BRIDGE ROAD,RAFFLES HOTEL SHOPPING ARCADE,328 NORTH BRIDGE ROAD RAFFLES HOTEL SHOPPING ARCADE SINGAPORE 188719,188719,30312.4383352436,30881.4786992278,1.29555555072056,103.854096841877
BEDOK SHOPPING COMPLEX,334A,BEDOK ROAD,BEDOK SHOPPING COMPLEX,334A BEDOK ROAD BEDOK SHOPPING COMPLEX SINGAPORE 469509,469509,40766.9500900926,34825.0320062414,1.33121705595586,103.948036721225
TUDOR COURT SHOPPING GALLERY,125,TANGLIN ROAD,TUDOR COURT SHOPPING GALLERY,125 TANGLIN ROAD TUDOR COURT SHOPPING GALLERY SINGAPORE 247921,247921,27039.8263731627,31949.7237428352,1.30521645354447,103.82469096924
